LEMUR-2-STARLIGHT       
1 66783U 25276DY  26197.13678419  .00003695  00000+0  30612-3 0  9993
2 66783  97.5236 266.7857 0014682  44.7641 315.4765 14.99362068 34536
LEMUR-2-TARTIFLETTE     
1 66784U 25276DZ  26197.13519479  .00003383  00000+0  28086-3 0  9990
2 66784  97.5234 266.7927 0013932  52.8232 307.4262 14.99346228 34539
LEMUR-2-VUKASIN         
1 66785U 25276EA  26197.17148193  .00002241  00000+0  18216-3 0  9992
2 66785  97.5222 267.1884 0002892  51.9297 308.2188 15.00551009 34497
LEMUR-2-HOTSPUR-TOM     
1 66786U 25276EB  26197.19640040  .00002767  00000+0  23119-3 0  9994
2 66786  97.5216 266.8257 0013745  44.1727 316.0592 14.99246626 34479
LEMUR-2-MYRA            
1 66787U 25276EC  26197.13667227  .00003164  00000+0  25422-3 0  9996
2 66787  97.5220 267.0739 0018687  51.4695 308.8201 15.00595023 34554
LEMUR-2 FIKRETDENGIZ    
1 67363U 26004A   26197.31053138  .00001570  00000+0  17464-3 0  9993
2 67363  97.8026 195.4261 0010117  52.7320 307.4818 14.88520966 27612
TWILIGHT-1 OBJECT B     
1 67364U 26004B   26197.28096371  .00000861  00000+0  10015-3 0  9993
2 67364  97.8076 195.3971 0009671  42.7075 317.4892 14.87795330 27615
LEMUR-2-MARIO-SOUSA     
1 67365U 26004C   26196.95417427  .00002372  00000+0  25951-3 0  9990
2 67365  97.7998 195.0701 0009802  54.9216 305.2919 14.88731264 27571
LEMUR-2-SONNENBLUME     
1 67367U 26004E   26196.95716686  .00001373  00000+0  15379-3 0  9994
2 67367  97.8001 195.0453 0009352  55.9946 304.2157 14.88455287 27575
LEMUR-2-WOBLER          
1 67368U 26004F   26197.28240051  .00002057  00000+0  22604-3 0  9999
2 67368  97.8050 195.5177 0009415  46.9431 313.2573 14.88702078 27628
LEMUR-2-GRAM-E-SUE      
1 67370U 26004H   26197.00573550  .00001218  00000+0  13657-3 0  9991
2 67370  97.7987 195.1097 0008550  58.8174 301.3880 14.88591442 27586
LEMUR-2-KATIE           
1 67387U 26004AA  26197.23037125  .00002190  00000+0  23138-3 0  9992
2 67387  97.8044 195.8859 0003416  31.8343 328.3080 14.90256414 27634
LEMUR-2-HCS-BAZUS       
1 67388U 26004AB  26196.89300270  .00001478  00000+0  15797-3 0  9998
2 67388  97.8038 195.5306 0002924  31.8037 328.3357 14.90263817 27581
