OBJECT_NAME,OBJECT_ID,EPOCH,MEAN_MOTION,ECCENTRICITY,INCLINATION,RA_OF_ASC_NODE,ARG_OF_PERICENTER,MEAN_ANOMALY,EPHEMERIS_TYPE,CLASSIFICATION_TYPE,NORAD_CAT_ID,ELEMENT_SET_NO,REV_AT_EPOCH,BSTAR,MEAN_MOTION_DOT,MEAN_MOTION_DDOT
LEMUR-2-STARLIGHT,2025-276DY,2026-07-16T03:16:58.154016,14.99362068,.00146822,97.5236,266.7857,44.7641,315.4765,0,U,66783,999,3453,.30612057E-3,.3695E-4,0
LEMUR-2-TARTIFLETTE,2025-276DZ,2026-07-16T03:14:40.829856,14.99346228,.00139321,97.5234,266.7927,52.8232,307.4262,0,U,66784,999,3453,.28086E-3,.3383E-4,0
LEMUR-2-VUKASIN,2025-276EA,2026-07-16T04:06:56.038752,15.00551009,.00028926,97.5222,267.1884,51.9297,308.2188,0,U,66785,999,3449,.18216304E-3,.2241E-4,0
LEMUR-2-HOTSPUR-TOM,2025-276EB,2026-07-16T04:42:48.994560,14.99246626,.00137457,97.5216,266.8257,44.1727,316.0592,0,U,66786,999,3447,.23118768E-3,.2767E-4,0
LEMUR-2-MYRA,2025-276EC,2026-07-16T03:16:48.484128,15.00595023,.00186871,97.5220,267.0739,51.4695,308.8201,0,U,66787,999,3455,.25421771E-3,.3164E-4,0
LEMUR-2 FIKRETDENGIZ,2026-004A,2026-07-16T07:27:09.911232,14.88520966,.0010117,97.8026,195.4261,52.7320,307.4818,0,U,67363,999,2761,.17464205E-3,.157E-4,0
TWILIGHT-1 OBJECT B,2026-004B,2026-07-16T06:44:35.264544,14.87795330,.00096711,97.8076,195.3971,42.7075,317.4892,0,U,67364,999,2761,.10015262E-3,.861E-5,0
LEMUR-2-MARIO-SOUSA,2026-004C,2026-07-15T22:54:00.656928,14.88731264,.0009802,97.7998,195.0701,54.9216,305.2919,0,U,67365,999,2757,.25951E-3,.2372E-4,0
LEMUR-2-SONNENBLUME,2026-004E,2026-07-15T22:58:19.216704,14.88455287,.0009352,97.8001,195.0453,55.9946,304.2157,0,U,67367,999,2757,.15379E-3,.1373E-4,0
LEMUR-2-WOBLER,2026-004F,2026-07-16T06:46:39.404064,14.88702078,.00094151,97.8050,195.5177,46.9431,313.2573,0,U,67368,999,2762,.22604187E-3,.2057E-4,0
LEMUR-2-GRAM-E-SUE,2026-004H,2026-07-16T00:08:15.547200,14.88591442,.00085507,97.7987,195.1097,58.8174,301.3880,0,U,67370,999,2758,.13656872E-3,.1218E-4,0
LEMUR-2-KATIE,2026-004AA,2026-07-16T05:31:44.076000,14.90256414,.00034165,97.8044,195.8859,31.8343,328.3080,0,U,67387,999,2763,.23137516E-3,.219E-4,0
LEMUR-2-HCS-BAZUS,2026-004AB,2026-07-15T21:25:55.433280,14.90263817,.0002924,97.8038,195.5306,31.8037,328.3357,0,U,67388,999,2758,.15797E-3,.1478E-4,0
